EUTELSAT 8 WEST B       
1 40875U 15039B   25241.23992135 -.00000063  00000+0  00000+0 0  9998
2 40875   0.0673   3.9000 0003687 154.7070 257.4577  1.00271482 36722
EUTELSAT 9B             
1 41310U 16005A   25241.24330138  .00000065  00000+0  00000+0 0  9998
2 41310   0.0386  70.7386 0001713 116.6410 246.8828  1.00272782 35184
EUTELSAT 65 WEST A      
1 41382U 16014A   25241.21641875 -.00000274  00000+0  00000+0 0  9990
2 41382   0.0543   2.3333 0002279 148.4729 199.5817  1.00273759 34608
EUTELSAT 117 WEST B     
1 41589U 16038B   25241.21834125 -.00000009  00000+0  00000+0 0  9993
2 41589   0.0064 272.2629 0000130 326.8630  60.1566  1.00271179 33739
EUTELSAT 172B           
1 42741U 17029B   25241.21433796 -.00000003  00000+0  00000+0 0  9998
2 42741   0.0181 148.5969 0000262 296.6808 141.5489  1.00273043 30804
EUTELSAT 7C             
1 44334U 19034B   25241.24295470  .00000051  00000+0  00000+0 0  9996
2 44334   0.0731 188.3604 0003232 314.7453 289.0479  1.00271330  3906
EUTELSAT 5 WEST B       
1 44624U 19067A   25241.24052802 -.00000039  00000+0  00000+0 0  9991
2 44624   0.1119 302.4361 0003136 215.0770 261.7453  1.00272510 21513
EUTELSAT KONNECT        
1 45027U 20005B   25241.02058633  .00000053  00000+0  00000+0 0  9992
2 45027   0.0648 101.7723 0001840  64.5986 185.7178  1.00275367 21393
